{
  "type": "FeatureCollection",
  "features": [
    {
      "type": "Feature",
      "properties": {
        "norad_id": 44873,
        "name": "CSG-1",
        "group": "resource",
        "lat": 29.3253855572847,
        "lon": -11.984380579437566,
        "alt_km": 620.7382199583471,
        "timestamp": "2025-12-08T03:50:06.662670+00:00",
        "meta_object_name": "CSG-1",
        "meta_object_id": "2019-092A",
        "meta_epoch": "2025-12-07T06:05:46.546080",
        "meta_mean_motion": 14.82152657,
        "meta_eccentricity": 0.00014621,
        "meta_inclination": 97.8812,
        "meta_ra_of_asc_node": 162.6608,
        "meta_arg_of_pericenter": 86.1907,
        "meta_mean_anomaly": 273.9473,
        "meta_ephemeris_type": 0,
        "meta_classification_type": "U",
        "meta_norad_cat_id": 44873,
        "meta_element_set_no": 999,
        "meta_rev_at_epoch": 32304,
        "meta_bstar": 0.00015976814,
        "meta_mean_motion_dot": 1.22e-05,
        "meta_mean_motion_ddot": 0,
        "tle_line1": "1 44873U 19092A   25341.25401095  .00001220  00000+0  15977-3 0  9994",
        "tle_line2": "2 44873  97.8812 162.6608 0001462  86.1907 273.9473 14.82152657323044"
      },
      "geometry": {
        "type": "Point",
        "coordinates": [
          -11.984380579437566,
          29.3253855572847
        ]
      }
    },
    {
      "type": "Feature",
      "properties": {
        "norad_id": 46277,
        "name": "NEMO-HD",
        "group": "resource",
        "lat": 71.41294624874047,
        "lon": 19.164834559588513,
        "alt_km": 437.24882419842834,
        "timestamp": "2025-12-08T03:50:06.662680+00:00",
        "meta_object_name": "NEMO-HD",
        "meta_object_id": "2020-061F",
        "meta_epoch": "2025-12-07T05:41:25.001952",
        "meta_mean_motion": 15.4016011,
        "meta_eccentricity": 0.00021625,
        "meta_inclination": 97.2215,
        "meta_ra_of_asc_node": 40.4058,
        "meta_arg_of_pericenter": 63.5007,
        "meta_mean_anomaly": 296.6461,
        "meta_ephemeris_type": 0,
        "meta_classification_type": "U",
        "meta_norad_cat_id": 46277,
        "meta_element_set_no": 999,
        "meta_rev_at_epoch": 29239,
        "meta_bstar": 0.00037735442,
        "meta_mean_motion_dot": 0.00015065,
        "meta_mean_motion_ddot": 0,
        "tle_line1": "1 46277U 20061F   25341.23709493  .00015065  00000+0  37735-3 0  9991",
        "tle_line2": "2 46277  97.2215  40.4058 0002162  63.5007 296.6461 15.40160110292395"
      },
      "geometry": {
        "type": "Point",
        "coordinates": [
          19.164834559588513,
          71.41294624874047
        ]
      }
    },
    {
      "type": "Feature",
      "properties": {
        "norad_id": 46984,
        "name": "SENTINEL-6A",
        "group": "resource",
        "lat": -37.27150586716659,
        "lon": 11.600087499785866,
        "alt_km": 1339.0808813757858,
        "timestamp": "2025-12-08T03:50:06.662690+00:00",
        "meta_object_name": "SENTINEL-6A",
        "meta_object_id": "2020-086A",
        "meta_epoch": "2025-12-07T06:04:13.122624",
        "meta_mean_motion": 12.80930326,
        "meta_eccentricity": 0.00077423,
        "meta_inclination": 66.0392,
        "meta_ra_of_asc_node": 173.7046,
        "meta_arg_of_pericenter": 269.2363,
        "meta_mean_anomaly": 90.7766,
        "meta_ephemeris_type": 0,
        "meta_classification_type": "U",
        "meta_norad_cat_id": 46984,
        "meta_element_set_no": 999,
        "meta_rev_at_epoch": 23574,
        "meta_bstar": 4.5197155e-05,
        "meta_mean_motion_dot": -5.1e-07,
        "meta_mean_motion_ddot": 0,
        "tle_line1": "1 46984U 20086A   25341.25292966 -.00000051  00000+0  45197-4 0  9999",
        "tle_line2": "2 46984  66.0392 173.7046 0007742 269.2363  90.7766 12.80930326235748"
      },
      "geometry": {
        "type": "Point",
        "coordinates": [
          11.600087499785866,
          -37.27150586716659
        ]
      }
    },
    {
      "type": "Feature",
      "properties": {
        "norad_id": 48079,
        "name": "GAOFEN-12 02",
        "group": "resource",
        "lat": 73.06586497306084,
        "lon": -51.26415113850043,
        "alt_km": 618.2242482756747,
        "timestamp": "2025-12-08T03:50:06.662701+00:00",
        "meta_object_name": "GAOFEN-12 02",
        "meta_object_id": "2021-026A",
        "meta_epoch": "2025-12-07T06:24:47.770848",
        "meta_mean_motion": 14.8066519,
        "meta_eccentricity": 0.00034106,
        "meta_inclination": 97.9849,
        "meta_ra_of_asc_node": 335.3001,
        "meta_arg_of_pericenter": 111.7602,
        "meta_mean_anomaly": 248.3973,
        "meta_ephemeris_type": 0,
        "meta_classification_type": "U",
        "meta_norad_cat_id": 48079,
        "meta_element_set_no": 999,
        "meta_rev_at_epoch": 25336,
        "meta_bstar": 0.00014054876,
        "meta_mean_motion_dot": 1.027e-05,
        "meta_mean_motion_ddot": 0,
        "tle_line1": "1 48079U 21026A   25341.26721957  .00001027  00000+0  14055-3 0  9990",
        "tle_line2": "2 48079  97.9849 335.3001 0003410 111.7602 248.3973 14.80665190253362"
      },
      "geometry": {
        "type": "Point",
        "coordinates": [
          -51.26415113850043,
          73.06586497306084
        ]
      }
    },
    {
      "type": "Feature",
      "properties": {
        "norad_id": 48268,
        "name": "PLEIADES NEO 3",
        "group": "resource",
        "lat": 53.60251624362447,
        "lon": -114.48390437558423,
        "alt_km": 618.2526307898052,
        "timestamp": "2025-12-08T03:50:06.662711+00:00",
        "meta_object_name": "PLEIADES NEO 3",
        "meta_object_id": "2021-034A",
        "meta_epoch": "2025-12-07T06:12:00.937152",
        "meta_mean_motion": 14.81669121,
        "meta_eccentricity": 0.00012998,
        "meta_inclination": 97.8949,
        "meta_ra_of_asc_node": 53.778,
        "meta_arg_of_pericenter": 96.8524,
        "meta_mean_anomaly": 263.2837,
        "meta_ephemeris_type": 0,
        "meta_classification_type": "U",
        "meta_norad_cat_id": 48268,
        "meta_element_set_no": 999,
        "meta_rev_at_epoch": 24923,
        "meta_bstar": 2.8000626e-05,
        "meta_mean_motion_dot": 1.68e-06,
        "meta_mean_motion_ddot": 0,
        "tle_line1": "1 48268U 21034A   25341.25834418  .00000168  00000+0  28001-4 0  9997",
        "tle_line2": "2 48268  97.8949  53.7780 0001299  96.8524 263.2837 14.81669121249231"
      },
      "geometry": {
        "type": "Point",
        "coordinates": [
          -114.48390437558423,
          53.60251624362447
        ]
      }
    },
    {
      "type": "Feature",
      "properties": {
        "norad_id": 49070,
        "name": "PLEIADES NEO 4",
        "group": "resource",
        "lat": -53.675682758132574,
        "lon": 65.54165946407188,
        "alt_km": 631.8104776457576,
        "timestamp": "2025-12-08T03:50:06.662721+00:00",
        "meta_object_name": "PLEIADES NEO 4",
        "meta_object_id": "2021-073E",
        "meta_epoch": "2025-12-07T05:23:22.506720",
        "meta_mean_motion": 14.81674422,
        "meta_eccentricity": 0.0001306,
        "meta_inclination": 97.895,
        "meta_ra_of_asc_node": 53.7407,
        "meta_arg_of_pericenter": 94.2752,
        "meta_mean_anomaly": 265.861,
        "meta_ephemeris_type": 0,
        "meta_classification_type": "U",
        "meta_norad_cat_id": 49070,
        "meta_element_set_no": 999,
        "meta_rev_at_epoch": 23294,
        "meta_bstar": 8.271113e-05,
        "meta_mean_motion_dot": 5.99e-06,
        "meta_mean_motion_ddot": 0,
        "tle_line1": "1 49070U 21073E   25341.22456605  .00000599  00000+0  82711-4 0  9993",
        "tle_line2": "2 49070  97.8950  53.7407 0001306  94.2752 265.8610 14.81674422232942"
      },
      "geometry": {
        "type": "Point",
        "coordinates": [
          65.54165946407188,
          -53.675682758132574
        ]
      }
    },
    {
      "type": "Feature",
      "properties": {
        "norad_id": 49260,
        "name": "LANDSAT 9",
        "group": "resource",
        "lat": 6.382473013564278,
        "lon": 49.41177404869716,
        "alt_km": 704.5109805751863,
        "timestamp": "2025-12-08T03:50:06.662731+00:00",
        "meta_object_name": "LANDSAT 9",
        "meta_object_id": "2021-088A",
        "meta_epoch": "2025-12-07T03:05:05.345376",
        "meta_mean_motion": 14.57121431,
        "meta_eccentricity": 0.00011072,
        "meta_inclination": 98.21,
        "meta_ra_of_asc_node": 49.3208,
        "meta_arg_of_pericenter": 94.0679,
        "meta_mean_anomaly": 266.0646,
        "meta_ephemeris_type": 0,
        "meta_classification_type": "U",
        "meta_norad_cat_id": 49260,
        "meta_element_set_no": 999,
        "meta_rev_at_epoch": 22303,
        "meta_bstar": 0.00019577106,
        "meta_mean_motion_dot": 8.37e-06,
        "meta_mean_motion_ddot": 0,
        "tle_line1": "1 49260U 21088A   25341.12853409  .00000837  00000+0  19577-3 0  9996",
        "tle_line2": "2 49260  98.2100  49.3208 0001107  94.0679 266.0646 14.57121431223032"
      },
      "geometry": {
        "type": "Point",
        "coordinates": [
          49.41177404869716,
          6.382473013564278
        ]
      }
    }
  ]
}